KUIPER-00112            
1 65150U 25171U   25344.16668980 -.00017300  00000+0 -22456-2 0  9998
2 65150  51.8995 191.4614 0009012 222.2022 123.4269 14.79907104  5493
KUIPER-00114            
1 65151U 25171V   25344.04646171  .00011373  00000+0  15183-2 0  9995
2 65151  51.8988 212.0086 0006685 159.6438 200.4791 14.79926108 19368
KUIPER-00115            
1 65152U 25171W   25343.98685512  .00005115  00000+0  69908-3 0  9992
2 65152  51.8995 204.7510 0009861 188.7215 171.3577 14.79937748 19463
KUIPER-00116            
1 65153U 25171X   25344.01529104  .00005207  00000+0  71108-3 0  9999
2 65153  51.8979 209.6708 0010666 151.2855 208.8697 14.79938280 19392
KUIPER-00118            
1 65154U 25171Y   25344.01264970  .00005401  00000+0  73730-3 0  9996
2 65154  51.8980 212.1369 0001847 136.2403 223.8706 14.79913747 19366
KUIPER-00119            
1 65155U 25171Z   25343.89094726 -.00001179  00000+0 -12531-3 0  9994
2 65155  51.8983 200.2565 0008458 181.0818 179.0127 14.79948350 19513
KUIPER-00120            
1 65762U 25217A   25342.75987170  .00008668  00000+0  85664-3 0  9992
2 65762  51.8949  94.3258 0016790 351.5777   8.4907 14.92505286 11285
KUIPER-00132            
1 65763U 25217B   25343.64739198  .00068106  00000+0  18283-2 0  9992
2 65763  51.8626  79.7037 0007410   5.5708 354.5360 15.37287248 11563
